start=new Date('2022-11-03T00:00:00.000Z').valueOf();
sats=[{"FILE":"3642416","REV_AT_EPOCH":"2983","ELEMENT_SET_NO":"999","RA_OF_ASC_NODE":"190.6983","MEAN_MOTION_DOT":"0.00006103","PERIOD":"95.437","MEAN_MOTION":"15.08841806","DECAY_DATE":null,"SITE":"AFETR","BSTAR":"0.00040117000000","ECCENTRICITY":"0.00021060","TLE_LINE1":"1 52307U 22041AY  22306.39855049  .00006103  00000-0  40117-3 0  9998","GP_ID":"216754477","APOAPSIS":"541.197","COUNTRY_CODE":"US","TLE_LINE2":"2 52307  53.2187 190.6983 0002106  44.1993 315.9167 15.08841806 29835","ARG_OF_PERICENTER":"44.1993","LAUNCH_DATE":"2022-04-21","TIME_SYSTEM":"UTC","MEAN_ANOMALY":"315.9167","OBJECT_ID":"2022-041AY","EPOCH":"2022-11-02T09:33:54.762336","SEMIMAJOR_AXIS":"6917.875","OBJECT_TYPE":"PAYLOAD","RCS_SIZE":"LARGE","PERIAPSIS":"538.283","EPHEMERIS_TYPE":"0","MEAN_ELEMENT_THEORY":"SGP4","NORAD_CAT_ID":"52307","OBJECT_NAME":"STARLINK-3755","CLASSIFICATION_TYPE":"U","INCLINATION":"53.2187","MEAN_MOTION_DDOT":"0.0000000000000","REF_FRAME":"TEME","CENTER_NAME":"EARTH"},{"REF_FRAME":"TEME","CENTER_NAME":"EARTH","CLASSIFICATION_TYPE":"U","MEAN_MOTION_DDOT":"0.0000000000000","INCLINATION":"53.2154","NORAD_CAT_ID":"52308","OBJECT_NAME":"STARLINK-3745","PERIAPSIS":"538.369","RCS_SIZE":"LARGE","EPHEMERIS_TYPE":"0","MEAN_ELEMENT_THEORY":"SGP4","SEMIMAJOR_AXIS":"6917.914","OBJECT_TYPE":"PAYLOAD","MEAN_ANOMALY":"300.8889","OBJECT_ID":"2022-041AZ","EPOCH":"2022-11-02T18:35:46.430880","TLE_LINE2":"2 52308  53.2154 178.9915 0002038  59.2303 300.8889 15.08829140 31249","ARG_OF_PERICENTER":"59.2303","TIME_SYSTEM":"UTC","LAUNCH_DATE":"2022-04-21","APOAPSIS":"541.188","COUNTRY_CODE":"US","GP_ID":"216790838","SITE":"AFETR","BSTAR":"0.00006151900000","ECCENTRICITY":"0.00020380","TLE_LINE1":"1 52308U 22041AZ  22306.77484295  .00000691  00000-0  61519-4 0  9998","DECAY_DATE":null,"PERIOD":"95.438","MEAN_MOTION":"15.08829140","RA_OF_ASC_NODE":"178.9915","MEAN_MOTION_DOT":"0.00000691","REV_AT_EPOCH":"3124","ELEMENT_SET_NO":"999","FILE":"3643025"},{"MEAN_MOTION":"15.08837646","PERIOD":"95.438","DECAY_DATE":null,"TLE_LINE1":"1 52309U 22041BA  22306.38107021  .00001530  00000-0  11419-3 0  9991","BSTAR":"0.00011419000000","ECCENTRICITY":"0.00019330","SITE":"AFETR","GP_ID":"216755472","FILE":"3642416","ELEMENT_SET_NO":"999","REV_AT_EPOCH":"3118","RA_OF_ASC_NODE":"180.7677","MEAN_MOTION_DOT":"0.00001530","MEAN_ELEMENT_THEORY":"SGP4","EPHEMERIS_TYPE":"0","PERIAPSIS":"538.415","RCS_SIZE":"LARGE","OBJECT_NAME":"STARLINK-3756","NORAD_CAT_ID":"52309","INCLINATION":"53.2175","MEAN_MOTION_DDOT":"0.0000000000000","CLASSIFICATION_TYPE":"U","CENTER_NAME":"EARTH","REF_FRAME":"TEME","COUNTRY_CODE":"US","APOAPSIS":"541.090","LAUNCH_DATE":"2022-04-21","TIME_SYSTEM":"UTC","TLE_LINE2":"2 52309  53.2175 180.7677 0001933  48.6568 311.4590 15.08837646 31187","ARG_OF_PERICENTER":"48.6568","EPOCH":"2022-11-02T09:08:44.466144","OBJECT_ID":"2022-041BA","MEAN_ANOMALY":"311.4590","OBJECT_TYPE":"PAYLOAD","SEMIMAJOR_AXIS":"6917.888"},{"SITE":"AFETR","BSTAR":"0.00003596900000","ECCENTRICITY":"0.00018880","TLE_LINE1":"1 52310U 22041BB  22306.37098816  .00000284  00000-0  35969-4 0  9995","GP_ID":"216753727","PERIOD":"95.438","MEAN_MOTION":"15.08836816","DECAY_DATE":null,"REV_AT_EPOCH":"3118","ELEMENT_SET_NO":"999","MEAN_MOTION_DOT":"0.00000284","RA_OF_ASC_NODE":"180.8175","FILE":"3642416","CLASSIFICATION_TYPE":"U","INCLINATION":"53.2174","MEAN_MOTION_DDOT":"0.0000000000000","REF_FRAME":"TEME","CENTER_NAME":"EARTH","PERIAPSIS":"538.449","RCS_SIZE":"LARGE","EPHEMERIS_TYPE":"0","MEAN_ELEMENT_THEORY":"SGP4","NORAD_CAT_ID":"52310","OBJECT_NAME":"STARLINK-3688","MEAN_ANOMALY":"309.9037","OBJECT_ID":"2022-041BB","EPOCH":"2022-11-02T08:54:13.377024","SEMIMAJOR_AXIS":"6917.890","OBJECT_TYPE":"PAYLOAD","APOAPSIS":"541.061","COUNTRY_CODE":"US","ARG_OF_PERICENTER":"50.2121","TLE_LINE2":"2 52310  53.2174 180.8175 0001888  50.2121 309.9037 15.08836816 31181","LAUNCH_DATE":"2022-04-21","TIME_SYSTEM":"UTC"},{"MEAN_MOTION_DDOT":"0.0000000000000","INCLINATION":"53.2147","CLASSIFICATION_TYPE":"U","CENTER_NAME":"EARTH","REF_FRAME":"TEME","RCS_SIZE":"LARGE","PERIAPSIS":"537.968","MEAN_ELEMENT_THEORY":"SGP4","EPHEMERIS_TYPE":"0","NORAD_CAT_ID":"52311","OBJECT_NAME":"STARLINK-3750","OBJECT_ID":"2022-041BC","MEAN_ANOMALY":"314.3062","EPOCH":"2022-11-02T21:41:14.139168","SEMIMAJOR_AXIS":"6917.887","OBJECT_TYPE":"PAYLOAD","COUNTRY_CODE":"US","APOAPSIS":"541.535","ARG_OF_PERICENTER":"45.8142","TLE_LINE2":"2 52311  53.2147 178.4092 0002578  45.8142 314.3062 15.08837868 31268","TIME_SYSTEM":"UTC","LAUNCH_DATE":"2022-04-21","SITE":"AFETR","TLE_LINE1":"1 52311U 22041BC  22306.90363587  .00002333  00000-0  16465-3 0  9991","BSTAR":"0.00016465000000","ECCENTRICITY":"0.00025780","GP_ID":"216792089","MEAN_MOTION":"15.08837868","PERIOD":"95.438","DECAY_DATE":null,"REV_AT_EPOCH":"3126","ELEMENT_SET_NO":"999","RA_OF_ASC_NODE":"178.4092","MEAN_MOTION_DOT":"0.00002333","FILE":"3643025"},{"RA_OF_ASC_NODE":"178.8816","MEAN_MOTION_DOT":"0.00005148","REV_AT_EPOCH":"3125","ELEMENT_SET_NO":"999","FILE":"3643025","GP_ID":"216790339","SITE":"AFETR","BSTAR":"0.00034128000000","ECCENTRICITY":"0.00021050","TLE_LINE1":"1 52312U 22041BD  22306.80155411  .00005148  00000-0  34128-3 0  9999","DECAY_DATE":null,"PERIOD":"95.437","MEAN_MOTION":"15.08842015","SEMIMAJOR_AXIS":"6917.874","OBJECT_TYPE":"PAYLOAD","MEAN_ANOMALY":"313.2089","OBJECT_ID":"2022-041BD","EPOCH":"2022-11-02T19:14:14.275104","TLE_LINE2":"2 52312  53.2185 178.8816 0002105  46.9079 313.2089 15.08842015 31252","ARG_OF_PERICENTER":"46.9079","TIME_SYSTEM":"UTC","LAUNCH_DATE":"2022-04-21","APOAPSIS":"541.195","COUNTRY_CODE":"US","REF_FRAME":"TEME","CENTER_NAME":"EARTH","CLASSIFICATION_TYPE":"U","MEAN_MOTION_DDOT":"0.0000000000000","INCLINATION":"53.2185","NORAD_CAT_ID":"52312","OBJECT_NAME":"STARLINK-3752","PERIAPSIS":"538.283","RCS_SIZE":"LARGE","EPHEMERIS_TYPE":"0","MEAN_ELEMENT_THEORY":"SGP4"},{"REV_AT_EPOCH":"3114","ELEMENT_SET_NO":"999","RA_OF_ASC_NODE":"182.1546","MEAN_MOTION_DOT":"0.00001100","FILE":"3642416","SITE":"AFETR","ECCENTRICITY":"0.00017730","BSTAR":"0.00008716300000","TLE_LINE1":"1 52313U 22041BE  22306.07193578  .00001100  00000-0  87163-4 0  9997","GP_ID":"216754972","PERIOD":"95.437","MEAN_MOTION":"15.08844360","DECAY_DATE":null,"MEAN_ANOMALY":"318.0175","OBJECT_ID":"2022-041BE","EPOCH":"2022-11-02T01:43:35.251392","SEMIMAJOR_AXIS":"6917.867","OBJECT_TYPE":"PAYLOAD","APOAPSIS":"540.959","COUNTRY_CODE":"US","TLE_LINE2":"2 52313  53.2192 182.1546 0001773  42.0953 318.0175 15.08844360 31149","ARG_OF_PERICENTER":"42.0953","LAUNCH_DATE":"2022-04-21","TIME_SYSTEM":"UTC","CLASSIFICATION_TYPE":"U","MEAN_MOTION_DDOT":"0.0000000000000","INCLINATION":"53.2192","REF_FRAME":"TEME","CENTER_NAME":"EARTH","PERIAPSIS":"538.506","RCS_SIZE":"LARGE","EPHEMERIS_TYPE":"0","MEAN_ELEMENT_THEORY":"SGP4","NORAD_CAT_ID":"52313","OBJECT_NAME":"STARLINK-3749"},{"MEAN_ANOMALY":"329.7610","OBJECT_ID":"2022-045A","EPOCH":"2022-11-02T06:13:51.923136","SEMIMAJOR_AXIS":"6917.883","OBJECT_TYPE":"PAYLOAD","APOAPSIS":"541.493","COUNTRY_CODE":"US","TLE_LINE2":"2 52331  53.2175 301.3140 0002522  30.3528 329.7610 15.08839082 30941","ARG_OF_PERICENTER":"30.3528","LAUNCH_DATE":"2022-04-29","TIME_SYSTEM":"UTC","CLASSIFICATION_TYPE":"U","MEAN_MOTION_DDOT":"0.0000000000000","INCLINATION":"53.2175","REF_FRAME":"TEME","CENTER_NAME":"EARTH","PERIAPSIS":"538.004","RCS_SIZE":"LARGE","EPHEMERIS_TYPE":"0","MEAN_ELEMENT_THEORY":"SGP4","NORAD_CAT_ID":"52331","OBJECT_NAME":"STARLINK-3889","REV_AT_EPOCH":"3094","ELEMENT_SET_NO":"999","MEAN_MOTION_DOT":"0.00004192","RA_OF_ASC_NODE":"301.3140","FILE":"3642416","SITE":"AFETR","ECCENTRICITY":"0.00025220","BSTAR":"0.00028132000000","TLE_LINE1":"1 52331U 22045A   22306.25962874  .00004192  00000-0  28132-3 0  9998","GP_ID":"216754229","PERIOD":"95.438","MEAN_MOTION":"15.08839082","DECAY_DATE":null},{"REV_AT_EPOCH":"3094","ELEMENT_SET_NO":"999","MEAN_MOTION_DOT":"0.00000039","RA_OF_ASC_NODE":"301.2557","FILE":"3642416","SITE":"AFETR","TLE_LINE1":"1 52332U 22045B   22306.27066849  .00000039  00000-0  20557-4 0  9998","ECCENTRICITY":"0.00028770","BSTAR":"0.00002055700000","GP_ID":"216754479","MEAN_MOTION":"15.08839614","PERIOD":"95.438","DECAY_DATE":null,"OBJECT_ID":"2022-045B","MEAN_ANOMALY":"330.3536","EPOCH":"2022-11-02T06:29:45.757536","SEMIMAJOR_AXIS":"6917.882","OBJECT_TYPE":"PAYLOAD","COUNTRY_CODE":"US","APOAPSIS":"541.737","TLE_LINE2":"2 52332  53.2178 301.2557 0002877  29.7620 330.3536 15.08839614 30940","ARG_OF_PERICENTER":"29.7620","LAUNCH_DATE":"2022-04-29","TIME_SYSTEM":"UTC","INCLINATION":"53.2178","MEAN_MOTION_DDOT":"0.0000000000000","CLASSIFICATION_TYPE":"U","CENTER_NAME":"EARTH","REF_FRAME":"TEME","PERIAPSIS":"537.756","RCS_SIZE":"LARGE","MEAN_ELEMENT_THEORY":"SGP4","EPHEMERIS_TYPE":"0","NORAD_CAT_ID":"52332","OBJECT_NAME":"STARLINK-3831"},{"TIME_SYSTEM":"UTC","LAUNCH_DATE":"2022-04-29","TLE_LINE2":"2 52333  53.2173 301.2724 0002354  30.7570 329.3560 15.08833865 30934","ARG_OF_PERICENTER":"30.7570","COUNTRY_CODE":"US","APOAPSIS":"541.393","OBJECT_TYPE":"PAYLOAD","SEMIMAJOR_AXIS":"6917.899","EPOCH":"2022-11-02T06:24:26.772192","OBJECT_ID":"2022-045C","MEAN_ANOMALY":"329.3560","OBJECT_NAME":"STARLINK-3847","NORAD_CAT_ID":"52333","MEAN_ELEMENT_THEORY":"SGP4","EPHEMERIS_TYPE":"0","PERIAPSIS":"538.136","RCS_SIZE":"LARGE","CENTER_NAME":"EARTH","REF_FRAME":"TEME","INCLINATION":"53.2173","MEAN_MOTION_DDOT":"0.0000000000000","CLASSIFICATION_TYPE":"U","FILE":"3642416","RA_OF_ASC_NODE":"301.2724","MEAN_MOTION_DOT":"0.00001820","ELEMENT_SET_NO":"999","REV_AT_EPOCH":"3093","DECAY_DATE":null,"MEAN_MOTION":"15.08833865","PERIOD":"95.438","GP_ID":"216755231","TLE_LINE1":"1 52333U 22045C   22306.26697653  .00001820  00000-0  13244-3 0  9994","BSTAR":"0.00013244000000","ECCENTRICITY":"0.00023540","SITE":"AFETR"}];
